[{"OBJECT_NAME":"HERMES-3","OBJECT_ID":"2025-052BR","EPOCH":"2026-03-09T22:30:01.073952","MEAN_MOTION":15.30039786,"ECCENTRICITY":0.00079928,"INCLINATION":97.3987,"RA_OF_ASC_NODE":324.6131,"ARG_OF_PERICENTER":112.9583,"MEAN_ANOMALY":247.2502,"EPHEMERIS_TYPE":0,"CLASSIFICATION_TYPE":"U","NORAD_CAT_ID":63835,"ELEMENT_SET_NO":999,"REV_AT_EPOCH":5486,"BSTAR":0.0006995793,"MEAN_MOTION_DOT":0.00020316,"MEAN_MOTION_DDOT":0},{"OBJECT_NAME":"STARLINK-33839","OBJECT_ID":"2025-110T","EPOCH":"2026-03-09T03:52:11.678592","MEAN_MOTION":15.30198575,"ECCENTRICITY":0.00010831,"INCLINATION":53.1613,"RA_OF_ASC_NODE":29.0665,"ARG_OF_PERICENTER":85.5068,"MEAN_ANOMALY":274.6057,"EPHEMERIS_TYPE":0,"CLASSIFICATION_TYPE":"U","NORAD_CAT_ID":64113,"ELEMENT_SET_NO":999,"REV_AT_EPOCH":4580,"BSTAR":0.0010355119,"MEAN_MOTION_DOT":0.00030434,"MEAN_MOTION_DDOT":0}]
